PLEIADES 1A             
1 38012U 11076F   26192.96987583  .00000018  00000+0  13619-4 0  9996
2 38012  98.1973 267.7386 0001714  81.2380  34.2461 14.58545288775602
PLEIADES 1B             
1 39019U 12068A   26192.98183530 -.00000021  00000+0  53519-5 0  9997
2 39019  98.1943 267.6912 0001631  79.8826 280.2557 14.58532716724466
